CARTOSAT-3              
1 44804U 19081A   26068.96642447  .00004075  00000+0  19660-3 0  9993
2 44804  97.4422 132.3705 0013025 136.2078 224.0192 15.19179249348406
UMKA 1 (RS40S)          
1 57172U 23091G   26068.96724054  .00008531  00000+0  40263-3 0  9990
2 57172  97.5176 128.0722 0014669 105.2249 255.0609 15.19603279148935
